{
  "norad_id": 49450,
  "name": "STARLINK-3127",
  "history": [
    {
      "epoch": "2026-03-28T20:06:28.518912Z",
      "apogee_km": 540.6491342611207,
      "perigee_km": 538.8095352453838,
      "latitude_deg": -3.168114767783394e-05,
      "longitude_deg": 5.32740873210344,
      "height_km": 540.5946480637298,
      "semi_major_axis_km": 6917.866334753252,
      "eccentricity": 0.00013296,
      "inclination_deg": 53.2166,
      "raan_deg": 133.1988,
      "arg_perigee_deg": 88.1086,
      "mean_anomaly_deg": 272.0058,
      "mean_motion_rev_day": 15.08844598
    }
  ]
}